STARLINK-1131           
1 45047U 20006D   26068.86193328 -.00000150  00000+0  70610-5 0  9995
2 45047  53.1594 280.1814 0001169  85.5645 274.5489 15.30189910336573
SKYKRAFT-1A             
1 55054U 23001AX  26068.71064616  .00008177  00000+0  30069-3 0  9991
2 55054  97.3349 127.6290 0011277 121.5092 238.7251 15.28083228176529
